start=new Date('2022-06-15T00:00:00.000Z').valueOf();
sats=[{"RCS_SIZE":"LARGE","PERIAPSIS":"546.229","ECCENTRICITY":"0.00014340","CENTER_NAME":"EARTH","LAUNCH_DATE":"2021-03-14","CLASSIFICATION_TYPE":"U","BSTAR":"-0.00001650500000","MEAN_MOTION_DOT":"-0.00000527","EPHEMERIS_TYPE":"0","REV_AT_EPOCH":"7070","FILE":"3495970","SITE":"AFETR","ARG_OF_PERICENTER":"76.9222","TLE_LINE1":"1 47901U 21021AT  22165.46372014 -.00000527  00000-0 -16505-4 0  9997","GP_ID":"206139079","MEAN_MOTION_DDOT":"0.0000000000000","EPOCH":"2022-06-14T11:07:45.420096","APOAPSIS":"548.215","RA_OF_ASC_NODE":"265.9571","OBJECT_NAME":"STARLINK-2361","COUNTRY_CODE":"US","OBJECT_TYPE":"PAYLOAD","INCLINATION":"53.0551","DECAY_DATE":null,"OBJECT_ID":"2021-021AT","PERIOD":"95.592","REF_FRAME":"TEME","SEMIMAJOR_AXIS":"6925.357","MEAN_ELEMENT_THEORY":"SGP4","ELEMENT_SET_NO":"999","MEAN_MOTION":"15.06397117","MEAN_ANOMALY":"283.1927","TIME_SYSTEM":"UTC","TLE_LINE2":"2 47901  53.0551 265.9571 0001434  76.9222 283.1927 15.06397117 70703","NORAD_CAT_ID":"47901"},{"ELEMENT_SET_NO":"999","MEAN_ELEMENT_THEORY":"SGP4","NORAD_CAT_ID":"47902","TLE_LINE2":"2 47902  53.0559 284.1516 0001411  68.4919 291.6220 15.06390459 70597","TIME_SYSTEM":"UTC","MEAN_ANOMALY":"291.6220","MEAN_MOTION":"15.06390459","OBJECT_ID":"2021-021AU","DECAY_DATE":null,"SEMIMAJOR_AXIS":"6925.378","REF_FRAME":"TEME","PERIOD":"95.593","OBJECT_TYPE":"PAYLOAD","COUNTRY_CODE":"US","INCLINATION":"53.0559","EPOCH":"2022-06-14T20:17:06.138816","OBJECT_NAME":"STARLINK-2362","RA_OF_ASC_NODE":"284.1516","APOAPSIS":"548.220","SITE":"AFETR","MEAN_MOTION_DDOT":"0.0000000000000","TLE_LINE1":"1 47902U 21021AU  22165.84520994 -.00000281  00000-0  49693-7 0  9995","ARG_OF_PERICENTER":"68.4919","GP_ID":"206169033","MEAN_MOTION_DOT":"-0.00000281","REV_AT_EPOCH":"7059","EPHEMERIS_TYPE":"0","FILE":"3496199","CLASSIFICATION_TYPE":"U","LAUNCH_DATE":"2021-03-14","CENTER_NAME":"EARTH","BSTAR":"0.00000004969300","PERIAPSIS":"546.266","RCS_SIZE":"LARGE","ECCENTRICITY":"0.00014110"},{"MEAN_MOTION":"15.06703071","MEAN_ANOMALY":"305.2921","NORAD_CAT_ID":"47903","TIME_SYSTEM":"UTC","TLE_LINE2":"2 47903  53.0547 265.5327 0001933  54.8249 305.2921 15.06703071 71063","MEAN_ELEMENT_THEORY":"SGP4","ELEMENT_SET_NO":"999","PERIOD":"95.573","SEMIMAJOR_AXIS":"6924.420","REF_FRAME":"TEME","OBJECT_ID":"2021-021AV","DECAY_DATE":null,"INCLINATION":"53.0547","OBJECT_TYPE":"PAYLOAD","COUNTRY_CODE":"US","RA_OF_ASC_NODE":"265.5327","APOAPSIS":"547.623","OBJECT_NAME":"STARLINK-2363","EPOCH":"2022-06-14T12:52:37.381728","GP_ID":"206138079","TLE_LINE1":"1 47903U 21021AV  22165.53654377 -.00051023  00000-0 -34029-2 0  9998","ARG_OF_PERICENTER":"54.8249","MEAN_MOTION_DDOT":"0.0000000000000","SITE":"AFETR","FILE":"3495970","REV_AT_EPOCH":"7106","MEAN_MOTION_DOT":"-0.00051023","EPHEMERIS_TYPE":"0","BSTAR":"-0.00340290000000","CLASSIFICATION_TYPE":"U","CENTER_NAME":"EARTH","LAUNCH_DATE":"2021-03-14","ECCENTRICITY":"0.00019330","RCS_SIZE":"LARGE","PERIAPSIS":"544.946"},{"MEAN_MOTION_DOT":"-0.00000197","EPHEMERIS_TYPE":"0","REV_AT_EPOCH":"7025","FILE":"3495610","SITE":"AFETR","MEAN_MOTION_DDOT":"0.0000000000000","ARG_OF_PERICENTER":"74.1203","TLE_LINE1":"1 47904U 21021AW  22165.53374011 -.00000197  00000-0  56577-5 0  9993","GP_ID":"206109448","PERIAPSIS":"546.107","RCS_SIZE":"LARGE","ECCENTRICITY":"0.00016040","CLASSIFICATION_TYPE":"U","LAUNCH_DATE":"2021-03-14","CENTER_NAME":"EARTH","BSTAR":"0.00000565770000","OBJECT_ID":"2021-021AW","DECAY_DATE":null,"SEMIMAJOR_AXIS":"6925.353","REF_FRAME":"TEME","PERIOD":"95.592","ELEMENT_SET_NO":"999","MEAN_ELEMENT_THEORY":"SGP4","NORAD_CAT_ID":"47904","TIME_SYSTEM":"UTC","TLE_LINE2":"2 47904  53.0554 265.5635 0001604  74.1203 285.9963 15.06398590 70250","MEAN_ANOMALY":"285.9963","MEAN_MOTION":"15.06398590","EPOCH":"2022-06-14T12:48:35.145504","OBJECT_NAME":"STARLINK-2364","RA_OF_ASC_NODE":"265.5635","APOAPSIS":"548.329","OBJECT_TYPE":"PAYLOAD","COUNTRY_CODE":"US","INCLINATION":"53.0554"},{"SEMIMAJOR_AXIS":"6925.335","REF_FRAME":"TEME","PERIOD":"95.592","OBJECT_ID":"2021-021AX","DECAY_DATE":null,"NORAD_CAT_ID":"47905","TLE_LINE2":"2 47905  53.0543 265.8643 0001729  67.4734 292.6438 15.06404433 70822","TIME_SYSTEM":"UTC","MEAN_MOTION":"15.06404433","MEAN_ANOMALY":"292.6438","ELEMENT_SET_NO":"999","MEAN_ELEMENT_THEORY":"SGP4","OBJECT_NAME":"STARLINK-2365","RA_OF_ASC_NODE":"265.8643","APOAPSIS":"548.397","EPOCH":"2022-06-14T11:06:22.108032","INCLINATION":"53.0543","OBJECT_TYPE":"PAYLOAD","COUNTRY_CODE":"US","FILE":"3495970","MEAN_MOTION_DOT":"0.00000936","REV_AT_EPOCH":"7082","EPHEMERIS_TYPE":"0","MEAN_MOTION_DDOT":"0.0000000000000","TLE_LINE1":"1 47905U 21021AX  22165.46275588  .00000936  00000-0  81730-4 0  9993","ARG_OF_PERICENTER":"67.4734","GP_ID":"206138581","SITE":"AFETR","ECCENTRICITY":"0.00017290","PERIAPSIS":"546.003","RCS_SIZE":"LARGE","BSTAR":"0.00008173000000","CLASSIFICATION_TYPE":"U","CENTER_NAME":"EARTH","LAUNCH_DATE":"2021-03-14"},{"BSTAR":"-0.00003896100000","LAUNCH_DATE":"2021-03-14","CENTER_NAME":"EARTH","CLASSIFICATION_TYPE":"U","ECCENTRICITY":"0.00030400","RCS_SIZE":"LARGE","PERIAPSIS":"337.678","GP_ID":"206143782","TLE_LINE1":"1 47906U 21021AY  22165.55194054 -.00007032  00000-0 -38961-4 0  9996","ARG_OF_PERICENTER":"23.2745","MEAN_MOTION_DDOT":"0.0000000000000","SITE":"AFETR","FILE":"3496048","REV_AT_EPOCH":"7244","MEAN_MOTION_DOT":"-0.00007032","EPHEMERIS_TYPE":"0","INCLINATION":"53.0342","COUNTRY_CODE":"US","OBJECT_TYPE":"PAYLOAD","APOAPSIS":"341.763","RA_OF_ASC_NODE":"107.8130","OBJECT_NAME":"STARLINK-2366","EPOCH":"2022-06-14T13:14:47.662656","MEAN_ANOMALY":"336.8411","MEAN_MOTION":"15.76728018","TIME_SYSTEM":"UTC","TLE_LINE2":"2 47906  53.0342 107.8130 0003040  23.2745 336.8411 15.76728018 72443","NORAD_CAT_ID":"47906","MEAN_ELEMENT_THEORY":"SGP4","ELEMENT_SET_NO":"999","PERIOD":"91.328","REF_FRAME":"TEME","SEMIMAJOR_AXIS":"6717.855","DECAY_DATE":null,"OBJECT_ID":"2021-021AY"},{"LAUNCH_DATE":"2021-03-14","CENTER_NAME":"EARTH","CLASSIFICATION_TYPE":"U","BSTAR":"-0.00006543100000","RCS_SIZE":"LARGE","PERIAPSIS":"546.178","ECCENTRICITY":"0.00015220","SITE":"AFETR","TLE_LINE1":"1 47907U 21021AZ  22165.73830944 -.00001256  00000-0 -65431-4 0  9996","GP_ID":"206169285","ARG_OF_PERICENTER":"69.2312","MEAN_MOTION_DDOT":"0.0000000000000","MEAN_MOTION_DOT":"-0.00001256","EPHEMERIS_TYPE":"0","REV_AT_EPOCH":"7043","FILE":"3496199","COUNTRY_CODE":"US","OBJECT_TYPE":"PAYLOAD","INCLINATION":"53.0563","EPOCH":"2022-06-14T17:43:09.935616","APOAPSIS":"548.286","RA_OF_ASC_NODE":"284.6448","OBJECT_NAME":"STARLINK-2367","MEAN_ELEMENT_THEORY":"SGP4","ELEMENT_SET_NO":"999","MEAN_MOTION":"15.06393900","MEAN_ANOMALY":"290.8840","TIME_SYSTEM":"UTC","TLE_LINE2":"2 47907  53.0563 284.6448 0001522  69.2312 290.8840 15.06393900 70431","NORAD_CAT_ID":"47907","DECAY_DATE":null,"OBJECT_ID":"2021-021AZ","PERIOD":"95.593","REF_FRAME":"TEME","SEMIMAJOR_AXIS":"6925.367"},{"MEAN_MOTION":"15.06404247","MEAN_ANOMALY":"288.6873","NORAD_CAT_ID":"47908","TIME_SYSTEM":"UTC","TLE_LINE2":"2 47908  53.0553 285.8075 0001665  71.4297 288.6873 15.06404247 70422","MEAN_ELEMENT_THEORY":"SGP4","ELEMENT_SET_NO":"999","PERIOD":"95.592","SEMIMAJOR_AXIS":"6925.336","REF_FRAME":"TEME","OBJECT_ID":"2021-021BA","DECAY_DATE":null,"INCLINATION":"53.0553","OBJECT_TYPE":"PAYLOAD","COUNTRY_CODE":"US","RA_OF_ASC_NODE":"285.8075","APOAPSIS":"548.354","OBJECT_NAME":"STARLINK-2368","EPOCH":"2022-06-14T11:31:37.225344","ARG_OF_PERICENTER":"71.4297","TLE_LINE1":"1 47908U 21021BA  22165.48029196 -.00000236  00000-0  30832-5 0  9992","GP_ID":"206137830","MEAN_MOTION_DDOT":"0.0000000000000","SITE":"AFETR","FILE":"3495970","MEAN_MOTION_DOT":"-0.00000236","EPHEMERIS_TYPE":"0","REV_AT_EPOCH":"7042","BSTAR":"0.00000308320000","CLASSIFICATION_TYPE":"U","CENTER_NAME":"EARTH","LAUNCH_DATE":"2021-03-14","ECCENTRICITY":"0.00016650","RCS_SIZE":"LARGE","PERIAPSIS":"546.047"},{"EPOCH":"2022-06-14T16:40:48.174528","APOAPSIS":"548.267","RA_OF_ASC_NODE":"274.8390","OBJECT_NAME":"STARLINK-2369","COUNTRY_CODE":"US","OBJECT_TYPE":"PAYLOAD","INCLINATION":"53.0564","DECAY_DATE":null,"OBJECT_ID":"2021-021BB","PERIOD":"95.592","REF_FRAME":"TEME","SEMIMAJOR_AXIS":"6925.344","MEAN_ELEMENT_THEORY":"SGP4","ELEMENT_SET_NO":"999","MEAN_ANOMALY":"286.8232","MEAN_MOTION":"15.06401552","TIME_SYSTEM":"UTC","TLE_LINE2":"2 47909  53.0564 274.8390 0001528  73.2924 286.8232 15.06401552 70760","NORAD_CAT_ID":"47909","RCS_SIZE":"LARGE","PERIAPSIS":"546.151","ECCENTRICITY":"0.00015280","CENTER_NAME":"EARTH","LAUNCH_DATE":"2021-03-14","CLASSIFICATION_TYPE":"U","BSTAR":"-0.00003474900000","EPHEMERIS_TYPE":"0","MEAN_MOTION_DOT":"-0.00000799","REV_AT_EPOCH":"7076","FILE":"3496199","SITE":"AFETR","GP_ID":"206168784","TLE_LINE1":"1 47909U 21021BB  22165.69500202 -.00000799  00000-0 -34749-4 0  9993","ARG_OF_PERICENTER":"73.2924","MEAN_MOTION_DDOT":"0.0000000000000"},{"SEMIMAJOR_AXIS":"6925.345","REF_FRAME":"TEME","PERIOD":"95.592","OBJECT_ID":"2021-021BC","DECAY_DATE":null,"NORAD_CAT_ID":"47910","TLE_LINE2":"2 47910  53.0567 275.2714 0001252  71.5284 288.5841 15.06401213 70606","TIME_SYSTEM":"UTC","MEAN_ANOMALY":"288.5841","MEAN_MOTION":"15.06401213","ELEMENT_SET_NO":"999","MEAN_ELEMENT_THEORY":"SGP4","OBJECT_NAME":"STARLINK-2370","RA_OF_ASC_NODE":"275.2714","APOAPSIS":"548.077","EPOCH":"2022-06-14T14:21:25.973856","INCLINATION":"53.0567","OBJECT_TYPE":"PAYLOAD","COUNTRY_CODE":"US","FILE":"3495970","MEAN_MOTION_DOT":"-0.00000390","EPHEMERIS_TYPE":"0","REV_AT_EPOCH":"7060","MEAN_MOTION_DDOT":"0.0000000000000","TLE_LINE1":"1 47910U 21021BC  22165.59821729 -.00000390  00000-0 -73054-5 0  9994","GP_ID":"206139322","ARG_OF_PERICENTER":"71.5284","SITE":"AFETR","ECCENTRICITY":"0.00012520","PERIAPSIS":"546.343","RCS_SIZE":"LARGE","BSTAR":"-0.00000730540000","CLASSIFICATION_TYPE":"U","CENTER_NAME":"EARTH","LAUNCH_DATE":"2021-03-14"}];
